[{"OBJECT_NAME":"ONEWEB-0645","OBJECT_ID":"2023-029P","EPOCH":"2025-12-05T06:03:00.393696","MEAN_MOTION":13.19726009,"ECCENTRICITY":0.00023135,"INCLINATION":87.9185,"RA_OF_ASC_NODE":343.5783,"ARG_OF_PERICENTER":85.4597,"MEAN_ANOMALY":274.68,"EPHEMERIS_TYPE":0,"CLASSIFICATION_TYPE":"U","NORAD_CAT_ID":55809,"ELEMENT_SET_NO":999,"REV_AT_EPOCH":13332,"BSTAR":-7.0866602e-5,"MEAN_MOTION_DOT":-1.5e-7,"MEAN_MOTION_DDOT":0},{"OBJECT_NAME":"ONEWEB-0646","OBJECT_ID":"2023-029Q","EPOCH":"2025-12-05T01:00:30.460608","MEAN_MOTION":13.19727201,"ECCENTRICITY":0.00019173,"INCLINATION":87.9194,"RA_OF_ASC_NODE":343.6107,"ARG_OF_PERICENTER":81.9479,"MEAN_ANOMALY":278.1871,"EPHEMERIS_TYPE":0,"CLASSIFICATION_TYPE":"U","NORAD_CAT_ID":55810,"ELEMENT_SET_NO":999,"REV_AT_EPOCH":13328,"BSTAR":0.00026868059,"MEAN_MOTION_DOT":1.21e-6,"MEAN_MOTION_DDOT":0},{"OBJECT_NAME":"ONEWEB-0648","OBJECT_ID":"2023-029R","EPOCH":"2025-12-05T00:17:19.763520","MEAN_MOTION":13.14503799,"ECCENTRICITY":0.00027082,"INCLINATION":87.8985,"RA_OF_ASC_NODE":328.3889,"ARG_OF_PERICENTER":78.5129,"MEAN_ANOMALY":281.6305,"EPHEMERIS_TYPE":0,"CLASSIFICATION_TYPE":"U","NORAD_CAT_ID":55811,"ELEMENT_SET_NO":999,"REV_AT_EPOCH":13388,"BSTAR":-0.00048600647,"MEAN_MOTION_DOT":-1.67e-6,"MEAN_MOTION_DDOT":0},{"OBJECT_NAME":"ONEWEB-0649","OBJECT_ID":"2023-029S","EPOCH":"2025-12-05T07:04:24.619296","MEAN_MOTION":13.19723893,"ECCENTRICITY":0.00021407,"INCLINATION":87.9198,"RA_OF_ASC_NODE":343.5566,"ARG_OF_PERICENTER":83.4617,"MEAN_ANOMALY":276.6759,"EPHEMERIS_TYPE":0,"CLASSIFICATION_TYPE":"U","NORAD_CAT_ID":55812,"ELEMENT_SET_NO":999,"REV_AT_EPOCH":13335,"BSTAR":-1.0500866e-5,"MEAN_MOTION_DOT":9.0e-8,"MEAN_MOTION_DDOT":0},{"OBJECT_NAME":"ONEWEB-0650","OBJECT_ID":"2023-029T","EPOCH":"2025-12-05T06:57:34.393824","MEAN_MOTION":13.19725426,"ECCENTRICITY":0.00021341,"INCLINATION":87.9192,"RA_OF_ASC_NODE":343.5642,"ARG_OF_PERICENTER":78.9684,"MEAN_ANOMALY":281.1688,"EPHEMERIS_TYPE":0,"CLASSIFICATION_TYPE":"U","NORAD_CAT_ID":55813,"ELEMENT_SET_NO":999,"REV_AT_EPOCH":13332,"BSTAR":-0.00054553103,"MEAN_MOTION_DOT":-2.05e-6,"MEAN_MOTION_DDOT":0},{"OBJECT_NAME":"ONEWEB-0652","OBJECT_ID":"2023-029U","EPOCH":"2025-12-04T23:49:55.625088","MEAN_MOTION":13.14502873,"ECCENTRICITY":0.00016075,"INCLINATION":87.8981,"RA_OF_ASC_NODE":328.4135,"ARG_OF_PERICENTER":89.9571,"MEAN_ANOMALY":270.1743,"EPHEMERIS_TYPE":0,"CLASSIFICATION_TYPE":"U","NORAD_CAT_ID":55814,"ELEMENT_SET_NO":999,"REV_AT_EPOCH":13385,"BSTAR":-0.0003079313,"MEAN_MOTION_DOT":-1.01e-6,"MEAN_MOTION_DDOT":0},{"OBJECT_NAME":"ONEWEB-0653","OBJECT_ID":"2023-029V","EPOCH":"2025-12-04T23:27:05.817024","MEAN_MOTION":13.14503244,"ECCENTRICITY":0.0001776,"INCLINATION":87.8982,"RA_OF_ASC_NODE":328.4063,"ARG_OF_PERICENTER":92.79,"MEAN_ANOMALY":267.3433,"EPHEMERIS_TYPE":0,"CLASSIFICATION_TYPE":"U","NORAD_CAT_ID":55815,"ELEMENT_SET_NO":999,"REV_AT_EPOCH":13388,"BSTAR":0.00040695,"MEAN_MOTION_DOT":1.64e-6,"MEAN_MOTION_DDOT":0},{"OBJECT_NAME":"ONEWEB-0654","OBJECT_ID":"2023-029W","EPOCH":"2025-12-04T23:20:14.533152","MEAN_MOTION":13.14503239,"ECCENTRICITY":0.0001538,"INCLINATION":87.8982,"RA_OF_ASC_NODE":328.4066,"ARG_OF_PERICENTER":97.4382,"MEAN_ANOMALY":262.6923,"EPHEMERIS_TYPE":0,"CLASSIFICATION_TYPE":"U","NORAD_CAT_ID":55816,"ELEMENT_SET_NO":999,"REV_AT_EPOCH":13390,"BSTAR":0.00057248,"MEAN_MOTION_DOT":2.25e-6,"MEAN_MOTION_DDOT":0},{"OBJECT_NAME":"ONEWEB-0656","OBJECT_ID":"2023-029X","EPOCH":"2025-12-04T23:07:41.279808","MEAN_MOTION":13.20769698,"ECCENTRICITY":0.0001534,"INCLINATION":87.9195,"RA_OF_ASC_NODE":313.1611,"ARG_OF_PERICENTER":97.1032,"MEAN_ANOMALY":263.0275,"EPHEMERIS_TYPE":0,"CLASSIFICATION_TYPE":"U","NORAD_CAT_ID":55817,"ELEMENT_SET_NO":999,"REV_AT_EPOCH":13551,"BSTAR":5.8418e-5,"MEAN_MOTION_DOT":3.7e-7,"MEAN_MOTION_DDOT":0},{"OBJECT_NAME":"ONEWEB-0657","OBJECT_ID":"2023-029Y","EPOCH":"2025-12-05T06:50:47.461920","MEAN_MOTION":13.19725617,"ECCENTRICITY":0.00010216,"INCLINATION":87.919,"RA_OF_ASC_NODE":343.5672,"ARG_OF_PERICENTER":82.4555,"MEAN_ANOMALY":277.6694,"EPHEMERIS_TYPE":0,"CLASSIFICATION_TYPE":"U","NORAD_CAT_ID":55818,"ELEMENT_SET_NO":999,"REV_AT_EPOCH":13333,"BSTAR":6.7098343e-5,"MEAN_MOTION_DOT":4.0e-7,"MEAN_MOTION_DDOT":0},{"OBJECT_NAME":"ONEWEB-0658","OBJECT_ID":"2023-029Z","EPOCH":"2025-12-05T06:43:57.074880","MEAN_MOTION":13.19724358,"ECCENTRICITY":0.00020282,"INCLINATION":87.9207,"RA_OF_ASC_NODE":343.5203,"ARG_OF_PERICENTER":78.407,"MEAN_ANOMALY":281.729,"EPHEMERIS_TYPE":0,"CLASSIFICATION_TYPE":"U","NORAD_CAT_ID":55819,"ELEMENT_SET_NO":999,"REV_AT_EPOCH":13334,"BSTAR":-6.668896e-6,"MEAN_MOTION_DOT":1.0e-7,"MEAN_MOTION_DDOT":0},{"OBJECT_NAME":"ONEWEB-0660","OBJECT_ID":"2023-029AA","EPOCH":"2025-12-05T00:37:53.178816","MEAN_MOTION":13.14503436,"ECCENTRICITY":0.00020785,"INCLINATION":87.8989,"RA_OF_ASC_NODE":328.3741,"ARG_OF_PERICENTER":89.4016,"MEAN_ANOMALY":270.7352,"EPHEMERIS_TYPE":0,"CLASSIFICATION_TYPE":"U","NORAD_CAT_ID":55820,"ELEMENT_SET_NO":999,"REV_AT_EPOCH":13389,"BSTAR":0.0001532303,"MEAN_MOTION_DOT":7.0e-7,"MEAN_MOTION_DDOT":0},{"OBJECT_NAME":"ONEWEB-0661","OBJECT_ID":"2023-029AB","EPOCH":"2025-12-04T23:38:30.904224","MEAN_MOTION":13.14503845,"ECCENTRICITY":0.00020621,"INCLINATION":87.8981,"RA_OF_ASC_NODE":328.4487,"ARG_OF_PERICENTER":91.8847,"MEAN_ANOMALY":268.2519,"EPHEMERIS_TYPE":0,"CLASSIFICATION_TYPE":"U","NORAD_CAT_ID":55821,"ELEMENT_SET_NO":999,"REV_AT_EPOCH":13387,"BSTAR":0.00010989119,"MEAN_MOTION_DOT":5.4e-7,"MEAN_MOTION_DDOT":0},{"OBJECT_NAME":"ONEWEB-0662","OBJECT_ID":"2023-029AC","EPOCH":"2025-12-05T00:28:44.886144","MEAN_MOTION":13.14504424,"ECCENTRICITY":0.00021393,"INCLINATION":87.8982,"RA_OF_ASC_NODE":328.4474,"ARG_OF_PERICENTER":88.0164,"MEAN_ANOMALY":272.1211,"EPHEMERIS_TYPE":0,"CLASSIFICATION_TYPE":"U","NORAD_CAT_ID":55822,"ELEMENT_SET_NO":999,"REV_AT_EPOCH":13392,"BSTAR":-0.00016526784,"MEAN_MOTION_DOT":-4.8e-7,"MEAN_MOTION_DDOT":0},{"OBJECT_NAME":"ONEWEB-0663","OBJECT_ID":"2023-029AD","EPOCH":"2025-12-04T22:26:40.454016","MEAN_MOTION":13.20852311,"ECCENTRICITY":0.000224,"INCLINATION":87.9208,"RA_OF_ASC_NODE":313.2325,"ARG_OF_PERICENTER":82.7509,"MEAN_ANOMALY":277.3879,"EPHEMERIS_TYPE":0,"CLASSIFICATION_TYPE":"U","NORAD_CAT_ID":55823,"ELEMENT_SET_NO":999,"REV_AT_EPOCH":13550,"BSTAR":-1.4985e-5,"MEAN_MOTION_DOT":7.0e-8,"MEAN_MOTION_DDOT":0},{"OBJECT_NAME":"ONEWEB-0664","OBJECT_ID":"2023-029AE","EPOCH":"2025-12-04T22:49:30.234432","MEAN_MOTION":13.2077388,"ECCENTRICITY":0.0001952,"INCLINATION":87.9183,"RA_OF_ASC_NODE":313.2361,"ARG_OF_PERICENTER":95.7204,"MEAN_ANOMALY":264.4152,"EPHEMERIS_TYPE":0,"CLASSIFICATION_TYPE":"U","NORAD_CAT_ID":55824,"ELEMENT_SET_NO":999,"REV_AT_EPOCH":13550,"BSTAR":0.00026072,"MEAN_MOTION_DOT":1.19e-6,"MEAN_MOTION_DDOT":0},{"OBJECT_NAME":"ONEWEB-0665","OBJECT_ID":"2023-029AF","EPOCH":"2025-12-04T23:33:56.927232","MEAN_MOTION":13.1450407,"ECCENTRICITY":0.00020629,"INCLINATION":87.8984,"RA_OF_ASC_NODE":328.427,"ARG_OF_PERICENTER":85.9126,"MEAN_ANOMALY":274.2239,"EPHEMERIS_TYPE":0,"CLASSIFICATION_TYPE":"U","NORAD_CAT_ID":55825,"ELEMENT_SET_NO":999,"REV_AT_EPOCH":13389,"BSTAR":0.00028046056,"MEAN_MOTION_DOT":1.17e-6,"MEAN_MOTION_DDOT":0},{"OBJECT_NAME":"ONEWEB-0666","OBJECT_ID":"2023-029AG","EPOCH":"2025-12-04T22:40:24.392064","MEAN_MOTION":13.20769908,"ECCENTRICITY":0.0001118,"INCLINATION":87.9188,"RA_OF_ASC_NODE":313.2261,"ARG_OF_PERICENTER":78.824,"MEAN_ANOMALY":281.3019,"EPHEMERIS_TYPE":0,"CLASSIFICATION_TYPE":"U","NORAD_CAT_ID":55826,"ELEMENT_SET_NO":999,"REV_AT_EPOCH":13551,"BSTAR":0.00010686,"MEAN_MOTION_DOT":5.6e-7,"MEAN_MOTION_DDOT":0},{"OBJECT_NAME":"ONEWEB-0667","OBJECT_ID":"2023-029AH","EPOCH":"2025-12-05T00:20:26.054016","MEAN_MOTION":13.20770983,"ECCENTRICITY":0.00020186,"INCLINATION":87.9195,"RA_OF_ASC_NODE":313.1444,"ARG_OF_PERICENTER":86.829,"MEAN_ANOMALY":273.3074,"EPHEMERIS_TYPE":0,"CLASSIFICATION_TYPE":"U","NORAD_CAT_ID":55827,"ELEMENT_SET_NO":999,"REV_AT_EPOCH":13551,"BSTAR":-1.0830675e-5,"MEAN_MOTION_DOT":9.0e-8,"MEAN_MOTION_DDOT":0},{"OBJECT_NAME":"ONEWEB-0669","OBJECT_ID":"2023-029AJ","EPOCH":"2025-12-05T00:13:36.588864","MEAN_MOTION":13.20770424,"ECCENTRICITY":0.00015864,"INCLINATION":87.9187,"RA_OF_ASC_NODE":313.1802,"ARG_OF_PERICENTER":106.6716,"MEAN_ANOMALY":253.4591,"EPHEMERIS_TYPE":0,"CLASSIFICATION_TYPE":"U","NORAD_CAT_ID":55828,"ELEMENT_SET_NO":999,"REV_AT_EPOCH":13551,"BSTAR":-8.4903406e-5,"MEAN_MOTION_DOT":-2.2e-7,"MEAN_MOTION_DDOT":0},{"OBJECT_NAME":"ONEWEB-0670","OBJECT_ID":"2023-029AK","EPOCH":"2025-12-05T06:20:25.465632","MEAN_MOTION":13.1450265,"ECCENTRICITY":0.00020625,"INCLINATION":87.8987,"RA_OF_ASC_NODE":328.391,"ARG_OF_PERICENTER":94.7542,"MEAN_ANOMALY":265.3823,"EPHEMERIS_TYPE":0,"CLASSIFICATION_TYPE":"U","NORAD_CAT_ID":55829,"ELEMENT_SET_NO":999,"REV_AT_EPOCH":13395,"BSTAR":0.00075594092,"MEAN_MOTION_DOT":2.93e-6,"MEAN_MOTION_DDOT":0},{"OBJECT_NAME":"ONEWEB-0671","OBJECT_ID":"2023-029AL","EPOCH":"2025-12-05T06:37:07.490496","MEAN_MOTION":13.19724914,"ECCENTRICITY":0.00019744,"INCLINATION":87.9197,"RA_OF_ASC_NODE":343.5644,"ARG_OF_PERICENTER":90.6429,"MEAN_ANOMALY":269.493,"EPHEMERIS_TYPE":0,"CLASSIFICATION_TYPE":"U","NORAD_CAT_ID":55830,"ELEMENT_SET_NO":999,"REV_AT_EPOCH":13332,"BSTAR":2.5379556e-5,"MEAN_MOTION_DOT":2.3e-7,"MEAN_MOTION_DDOT":0},{"OBJECT_NAME":"ONEWEB-0672","OBJECT_ID":"2023-029AM","EPOCH":"2025-12-05T07:23:07.742400","MEAN_MOTION":13.20769542,"ECCENTRICITY":0.000157,"INCLINATION":87.9188,"RA_OF_ASC_NODE":313.101,"ARG_OF_PERICENTER":87.1048,"MEAN_ANOMALY":273.0265,"EPHEMERIS_TYPE":0,"CLASSIFICATION_TYPE":"U","NORAD_CAT_ID":55831,"ELEMENT_SET_NO":999,"REV_AT_EPOCH":13555,"BSTAR":1.4081183e-5,"MEAN_MOTION_DOT":1.9e-7,"MEAN_MOTION_DDOT":0}]
